[{"OBJECT_NAME":"STARLINK-34423","OBJECT_ID":"2025-130Y","EPOCH":"2025-10-07T11:08:27.063168","MEAN_MOTION":15.39704333,"ECCENTRICITY":7.235e-5,"INCLINATION":53.16,"RA_OF_ASC_NODE":80.9526,"ARG_OF_PERICENTER":49.5914,"MEAN_ANOMALY":310.5154,"EPHEMERIS_TYPE":0,"CLASSIFICATION_TYPE":"U","NORAD_CAT_ID":64460,"ELEMENT_SET_NO":999,"REV_AT_EPOCH":1723,"BSTAR":0.0016181195,"MEAN_MOTION_DOT":0.00065059,"MEAN_MOTION_DDOT":0},{"OBJECT_NAME":"STARLINK-34418","OBJECT_ID":"2025-130Z","EPOCH":"2025-10-07T01:40:54.839424","MEAN_MOTION":15.39641308,"ECCENTRICITY":0.00010608,"INCLINATION":53.1564,"RA_OF_ASC_NODE":82.7581,"ARG_OF_PERICENTER":83.5961,"MEAN_ANOMALY":276.5165,"EPHEMERIS_TYPE":0,"CLASSIFICATION_TYPE":"U","NORAD_CAT_ID":64461,"ELEMENT_SET_NO":999,"REV_AT_EPOCH":1717,"BSTAR":0.0013482081,"MEAN_MOTION_DOT":0.00053948,"MEAN_MOTION_DDOT":0},{"OBJECT_NAME":"STARLINK-34336","OBJECT_ID":"2025-130AA","EPOCH":"2025-10-07T10:40:00.956064","MEAN_MOTION":15.30217026,"ECCENTRICITY":0.00020207,"INCLINATION":53.1588,"RA_OF_ASC_NODE":82.8925,"ARG_OF_PERICENTER":80.8647,"MEAN_ANOMALY":279.2583,"EPHEMERIS_TYPE":0,"CLASSIFICATION_TYPE":"U","NORAD_CAT_ID":64462,"ELEMENT_SET_NO":999,"REV_AT_EPOCH":1720,"BSTAR":0.0010003833,"MEAN_MOTION_DOT":0.00029403,"MEAN_MOTION_DDOT":0},{"OBJECT_NAME":"STARLINK-34400","OBJECT_ID":"2025-130AB","EPOCH":"2025-10-07T10:30:54.911520","MEAN_MOTION":15.3023036,"ECCENTRICITY":0.00024788,"INCLINATION":53.1523,"RA_OF_ASC_NODE":82.9199,"ARG_OF_PERICENTER":82.9072,"MEAN_ANOMALY":277.2211,"EPHEMERIS_TYPE":0,"CLASSIFICATION_TYPE":"U","NORAD_CAT_ID":64463,"ELEMENT_SET_NO":999,"REV_AT_EPOCH":1720,"BSTAR":0.0013986037,"MEAN_MOTION_DOT":0.00041335,"MEAN_MOTION_DDOT":0},{"OBJECT_NAME":"STARLINK-34429","OBJECT_ID":"2025-130AC","EPOCH":"2025-10-07T10:41:42.025920","MEAN_MOTION":15.39657804,"ECCENTRICITY":0.00014712,"INCLINATION":53.1558,"RA_OF_ASC_NODE":80.8318,"ARG_OF_PERICENTER":101.6513,"MEAN_ANOMALY":258.4657,"EPHEMERIS_TYPE":0,"CLASSIFICATION_TYPE":"U","NORAD_CAT_ID":64464,"ELEMENT_SET_NO":999,"REV_AT_EPOCH":1723,"BSTAR":0.0015879892,"MEAN_MOTION_DOT":0.00063731,"MEAN_MOTION_DDOT":0},{"OBJECT_NAME":"STARLINK-34449","OBJECT_ID":"2025-130AD","EPOCH":"2025-10-07T10:01:42.434400","MEAN_MOTION":15.39159074,"ECCENTRICITY":0.00032491,"INCLINATION":53.151,"RA_OF_ASC_NODE":80.657,"ARG_OF_PERICENTER":107.0701,"MEAN_ANOMALY":253.066,"EPHEMERIS_TYPE":0,"CLASSIFICATION_TYPE":"U","NORAD_CAT_ID":64465,"ELEMENT_SET_NO":999,"REV_AT_EPOCH":1723,"BSTAR":0.0012220051,"MEAN_MOTION_DOT":0.00048057,"MEAN_MOTION_DDOT":0},{"OBJECT_NAME":"STARLINK-34493","OBJECT_ID":"2025-133A","EPOCH":"2025-10-07T12:39:17.705664","MEAN_MOTION":15.39657498,"ECCENTRICITY":0.00019231,"INCLINATION":53.1555,"RA_OF_ASC_NODE":111.4147,"ARG_OF_PERICENTER":84.9655,"MEAN_ANOMALY":275.157,"EPHEMERIS_TYPE":0,"CLASSIFICATION_TYPE":"U","NORAD_CAT_ID":64472,"ELEMENT_SET_NO":999,"REV_AT_EPOCH":1769,"BSTAR":0.0012733798,"MEAN_MOTION_DOT":0.0005094,"MEAN_MOTION_DDOT":0},{"OBJECT_NAME":"STARLINK-34492","OBJECT_ID":"2025-133B","EPOCH":"2025-10-07T12:33:05.371776","MEAN_MOTION":15.39675982,"ECCENTRICITY":0.00023986,"INCLINATION":53.1547,"RA_OF_ASC_NODE":111.3882,"ARG_OF_PERICENTER":74.7577,"MEAN_ANOMALY":285.3693,"EPHEMERIS_TYPE":0,"CLASSIFICATION_TYPE":"U","NORAD_CAT_ID":64473,"ELEMENT_SET_NO":999,"REV_AT_EPOCH":1769,"BSTAR":0.0013922708,"MEAN_MOTION_DOT":0.00055804,"MEAN_MOTION_DDOT":0},{"OBJECT_NAME":"STARLINK-34474","OBJECT_ID":"2025-133C","EPOCH":"2025-10-07T12:32:36.273984","MEAN_MOTION":15.39680042,"ECCENTRICITY":0.00017174,"INCLINATION":53.1617,"RA_OF_ASC_NODE":111.3861,"ARG_OF_PERICENTER":298.4922,"MEAN_ANOMALY":61.5909,"EPHEMERIS_TYPE":0,"CLASSIFICATION_TYPE":"U","NORAD_CAT_ID":64474,"ELEMENT_SET_NO":999,"REV_AT_EPOCH":1767,"BSTAR":0.0015683656,"MEAN_MOTION_DOT":0.00062979,"MEAN_MOTION_DDOT":0},{"OBJECT_NAME":"STARLINK-34523","OBJECT_ID":"2025-133D","EPOCH":"2025-10-07T12:26:24.356544","MEAN_MOTION":15.39624286,"ECCENTRICITY":1.017e-5,"INCLINATION":53.1614,"RA_OF_ASC_NODE":111.3585,"ARG_OF_PERICENTER":84.333,"MEAN_ANOMALY":275.7687,"EPHEMERIS_TYPE":0,"CLASSIFICATION_TYPE":"U","NORAD_CAT_ID":64475,"ELEMENT_SET_NO":999,"REV_AT_EPOCH":1767,"BSTAR":0.0020950169,"MEAN_MOTION_DOT":0.00084344,"MEAN_MOTION_DDOT":0},{"OBJECT_NAME":"STARLINK-34496","OBJECT_ID":"2025-133E","EPOCH":"2025-10-07T12:25:55.300224","MEAN_MOTION":15.3965848,"ECCENTRICITY":0.00022388,"INCLINATION":53.1579,"RA_OF_ASC_NODE":111.3554,"ARG_OF_PERICENTER":82.3958,"MEAN_ANOMALY":277.7301,"EPHEMERIS_TYPE":0,"CLASSIFICATION_TYPE":"U","NORAD_CAT_ID":64476,"ELEMENT_SET_NO":999,"REV_AT_EPOCH":1769,"BSTAR":0.0013342115,"MEAN_MOTION_DOT":0.00053412,"MEAN_MOTION_DDOT":0},{"OBJECT_NAME":"STARLINK-34375","OBJECT_ID":"2025-133F","EPOCH":"2025-10-07T06:05:48.716448","MEAN_MOTION":15.39639225,"ECCENTRICITY":0.00015827,"INCLINATION":53.1546,"RA_OF_ASC_NODE":112.5522,"ARG_OF_PERICENTER":79.6698,"MEAN_ANOMALY":280.4485,"EPHEMERIS_TYPE":0,"CLASSIFICATION_TYPE":"U","NORAD_CAT_ID":64477,"ELEMENT_SET_NO":999,"REV_AT_EPOCH":1765,"BSTAR":0.00137569,"MEAN_MOTION_DOT":0.00055061,"MEAN_MOTION_DDOT":0},{"OBJECT_NAME":"STARLINK-34490","OBJECT_ID":"2025-133G","EPOCH":"2025-10-07T05:59:07.111104","MEAN_MOTION":15.39603677,"ECCENTRICITY":0.00022346,"INCLINATION":53.1555,"RA_OF_ASC_NODE":112.5218,"ARG_OF_PERICENTER":75.0726,"MEAN_ANOMALY":285.0526,"EPHEMERIS_TYPE":0,"CLASSIFICATION_TYPE":"U","NORAD_CAT_ID":64478,"ELEMENT_SET_NO":999,"REV_AT_EPOCH":1765,"BSTAR":0.0012986887,"MEAN_MOTION_DOT":0.00051875,"MEAN_MOTION_DDOT":0},{"OBJECT_NAME":"STARLINK-34528","OBJECT_ID":"2025-133H","EPOCH":"2025-10-07T06:05:20.171616","MEAN_MOTION":15.39639301,"ECCENTRICITY":1.706e-5,"INCLINATION":53.1599,"RA_OF_ASC_NODE":112.5489,"ARG_OF_PERICENTER":210.1495,"MEAN_ANOMALY":149.95,"EPHEMERIS_TYPE":0,"CLASSIFICATION_TYPE":"U","NORAD_CAT_ID":64479,"ELEMENT_SET_NO":999,"REV_AT_EPOCH":1763,"BSTAR":0.0010885774,"MEAN_MOTION_DOT":0.00043419,"MEAN_MOTION_DDOT":0},{"OBJECT_NAME":"STARLINK-34518","OBJECT_ID":"2025-133J","EPOCH":"2025-10-07T13:46:01.685568","MEAN_MOTION":15.39649691,"ECCENTRICITY":8.412e-5,"INCLINATION":53.1583,"RA_OF_ASC_NODE":110.9897,"ARG_OF_PERICENTER":72.8909,"MEAN_ANOMALY":287.2188,"EPHEMERIS_TYPE":0,"CLASSIFICATION_TYPE":"U","NORAD_CAT_ID":64480,"ELEMENT_SET_NO":999,"REV_AT_EPOCH":1754,"BSTAR":0.0011376636,"MEAN_MOTION_DOT":0.00045422,"MEAN_MOTION_DDOT":0},{"OBJECT_NAME":"STARLINK-34526","OBJECT_ID":"2025-133K","EPOCH":"2025-10-06T22:05:03.210720","MEAN_MOTION":15.39628344,"ECCENTRICITY":0.00010844,"INCLINATION":53.1562,"RA_OF_ASC_NODE":114.0209,"ARG_OF_PERICENTER":105.2724,"MEAN_ANOMALY":254.84,"EPHEMERIS_TYPE":0,"CLASSIFICATION_TYPE":"U","NORAD_CAT_ID":64481,"ELEMENT_SET_NO":999,"REV_AT_EPOCH":1749,"BSTAR":0.0014787731,"MEAN_MOTION_DOT":0.00059227,"MEAN_MOTION_DDOT":0},{"OBJECT_NAME":"STARLINK-34527","OBJECT_ID":"2025-133L","EPOCH":"2025-10-07T12:05:51.475200","MEAN_MOTION":15.39635376,"ECCENTRICITY":6.355e-5,"INCLINATION":53.1579,"RA_OF_ASC_NODE":111.2664,"ARG_OF_PERICENTER":97.5945,"MEAN_ANOMALY":262.5132,"EPHEMERIS_TYPE":0,"CLASSIFICATION_TYPE":"U","NORAD_CAT_ID":64482,"ELEMENT_SET_NO":999,"REV_AT_EPOCH":1769,"BSTAR":0.0021848852,"MEAN_MOTION_DOT":0.00088054,"MEAN_MOTION_DDOT":0},{"OBJECT_NAME":"STARLINK-34420","OBJECT_ID":"2025-133M","EPOCH":"2025-10-07T13:33:07.951968","MEAN_MOTION":15.3965226,"ECCENTRICITY":0.00013355,"INCLINATION":53.1587,"RA_OF_ASC_NODE":110.9335,"ARG_OF_PERICENTER":87.9379,"MEAN_ANOMALY":272.1779,"EPHEMERIS_TYPE":0,"CLASSIFICATION_TYPE":"U","NORAD_CAT_ID":64483,"ELEMENT_SET_NO":999,"REV_AT_EPOCH":1770,"BSTAR":0.0012172871,"MEAN_MOTION_DOT":0.00048654,"MEAN_MOTION_DDOT":0},{"OBJECT_NAME":"STARLINK-34509","OBJECT_ID":"2025-133N","EPOCH":"2025-10-07T11:59:10.007232","MEAN_MOTION":15.39635749,"ECCENTRICITY":6.729e-5,"INCLINATION":53.1561,"RA_OF_ASC_NODE":111.2366,"ARG_OF_PERICENTER":80.4914,"MEAN_ANOMALY":279.6167,"EPHEMERIS_TYPE":0,"CLASSIFICATION_TYPE":"U","NORAD_CAT_ID":64484,"ELEMENT_SET_NO":999,"REV_AT_EPOCH":1769,"BSTAR":0.0011009299,"MEAN_MOTION_DOT":0.00043913,"MEAN_MOTION_DDOT":0},{"OBJECT_NAME":"STARLINK-34409","OBJECT_ID":"2025-133P","EPOCH":"2025-10-07T13:26:26.706048","MEAN_MOTION":15.39644979,"ECCENTRICITY":7.567e-5,"INCLINATION":53.1581,"RA_OF_ASC_NODE":110.9032,"ARG_OF_PERICENTER":111.3526,"MEAN_ANOMALY":248.756,"EPHEMERIS_TYPE":0,"CLASSIFICATION_TYPE":"U","NORAD_CAT_ID":64485,"ELEMENT_SET_NO":999,"REV_AT_EPOCH":1770,"BSTAR":0.0013155042,"MEAN_MOTION_DOT":0.00052627,"MEAN_MOTION_DDOT":0},{"OBJECT_NAME":"STARLINK-34520","OBJECT_ID":"2025-133Q","EPOCH":"2025-10-07T13:25:58.919808","MEAN_MOTION":15.39653712,"ECCENTRICITY":0.00013022,"INCLINATION":53.1535,"RA_OF_ASC_NODE":110.8999,"ARG_OF_PERICENTER":99.741,"MEAN_ANOMALY":260.3742,"EPHEMERIS_TYPE":0,"CLASSIFICATION_TYPE":"U","NORAD_CAT_ID":64486,"ELEMENT_SET_NO":999,"REV_AT_EPOCH":1770,"BSTAR":0.0015301069,"MEAN_MOTION_DOT":0.00061366,"MEAN_MOTION_DDOT":0},{"OBJECT_NAME":"STARLINK-34477","OBJECT_ID":"2025-133R","EPOCH":"2025-10-07T13:19:45.448032","MEAN_MOTION":15.39674652,"ECCENTRICITY":0.00018367,"INCLINATION":53.1583,"RA_OF_ASC_NODE":110.8735,"ARG_OF_PERICENTER":85.0531,"MEAN_ANOMALY":275.0684,"EPHEMERIS_TYPE":0,"CLASSIFICATION_TYPE":"U","NORAD_CAT_ID":64487,"ELEMENT_SET_NO":999,"REV_AT_EPOCH":1770,"BSTAR":0.0016521341,"MEAN_MOTION_DOT":0.00066382,"MEAN_MOTION_DDOT":0},{"OBJECT_NAME":"STARLINK-34217","OBJECT_ID":"2025-133S","EPOCH":"2025-10-07T13:19:16.831488","MEAN_MOTION":15.39635082,"ECCENTRICITY":8.769e-5,"INCLINATION":53.1589,"RA_OF_ASC_NODE":110.8712,"ARG_OF_PERICENTER":104.833,"MEAN_ANOMALY":255.2772,"EPHEMERIS_TYPE":0,"CLASSIFICATION_TYPE":"U","NORAD_CAT_ID":64488,"ELEMENT_SET_NO":999,"REV_AT_EPOCH":1759,"BSTAR":0.00054564487,"MEAN_MOTION_DOT":0.00021498,"MEAN_MOTION_DDOT":0}]
